0 METEOR 2-17 DEB
1 35364U 88005Y   13270.75364327  .00001246  00000-0  99723-3 0   809
2 35364 082.5430 056.5839 0009244 337.5246 022.4718 13.90116559303246
0 METEOR 2-17 DEB
1 35364U 88005Y   13273.70471335  .00001251  00000-0  10005-2 0   817
2 35364 082.5447 054.2230 0009728 320.1163 039.9429 13.90124147303656
0 METEOR 2-17 DEB
1 35364U 88005Y   13279.67874851  .00001236  00000-0  98834-3 0   820
2 35364 082.5468 049.4155 0004743 297.0097 063.0895 13.90138842304485
